#aV2024  8 31  0  0  0.00000000     288 DD+AD WGS84 FIT  NGA
## 2329 518400.00000000   300.00000000 60553 0.0000000000000
+   31     2  3  4  5  6  7  8  9 10 11 12 13 14 15 16 17 18
+         19 20 21 22 23 24 25 26 27 28 29 30 31 32  0  0  0
+          0  0  0  0  0  0  0  0  0  0  0  0  0  0  0  0  0
+          0  0  0  0  0  0  0  0  0  0  0  0  0  0  0  0  0
+          0  0  0  0  0  0  0  0  0  0  0  0  0  0  0  0  0
++         2  2  2  2  2  2  2  2  2  2  2  2  2  2  2  2  2
++         2  2  2  2  2  2  2  2  2  2  2  2  2  2  0  0  0
++         0  0  0  0  0  0  0  0  0  0  0  0  0  0  0  0  0
++         0  0  0  0  0  0  0  0  0  0  0  0  0  0  0  0  0
++         0  0  0  0  0  0  0  0  0  0  0  0  0  0  0  0  0
%c cc cc ccc ccc cccc cccc cccc cccc ccccc ccccc ccccc ccccc
%c cc cc ccc ccc cccc cccc cccc cccc ccccc ccccc ccccc ccccc
%f  0.0000000  0.000000000  0.00000000000  0.000000000000000
%f  0.0000000  0.000000000  0.00000000000  0.000000000000000
%i    0    0    0    0      0      0      0      0         0
%i    0    0    0    0      0      0      0      0         0
/*      NGA, ST. LOUIS,MO.                                  
/*   EPHEMERIS COMPUTED FROM 2 DAYS OF DATA                 
/*   EPOCHA v9 SMOOTHER                                     
/*   G2296 IERS2010 SATIGS SATAPC                           
*  2024  8 31  2 50  0.00000000
P  2   7182.615358 -18230.439437 -17304.234016   -368.070573                    
V  2  20700.890044 -10240.055681  19187.180276      0.078047                    
P  3  -6371.289689 -18701.734203 -17972.954318    520.322728                    
V  3  19143.345558  11653.940541 -18981.219376      0.140948                    
P  4    462.884249 -26284.034085   3226.978404    434.519044                    
V  4   3157.428358  -3791.348348 -31607.701297      0.072729                    
P  5  -9984.460093  11259.457403  21705.883606   -184.990432                    
V  5 -23824.887054 -14639.812577  -3267.443228     -0.012714                    
P  6 -24083.887772   3621.943162 -10660.596407     63.401382                    
V  6  11581.784037  -7227.830466 -28344.854761     -0.252515                    
P  7 -11717.342562 -11378.990186  21536.024001    -44.039030                    
V  7  23267.497970 -11820.301860   6121.131814      0.051260                    
P  8   6741.834486 -24002.108692   8392.219401    335.468577                    
V  8   2889.104368  11047.128341  29312.615473      0.137244                    
P  9  -8092.361098 -21707.589855  12846.020795    336.290980                    
V  9   3072.293482 -16369.620778 -25601.071961      0.158160                    
P 10  23602.693758   9630.958250  -7835.228517   -110.049065                    
V 10   7453.462588   7058.775330  29989.189474     -0.117211                    
P 11 -23069.798678  12632.346493   3467.026330   -728.761329                    
V 11  -5070.778332   -700.030109 -31517.231121     -0.048749                    
P 12   1709.421863  18421.210779 -19352.207370   -534.444145                    
V 12 -19692.772885 -13715.928817 -14968.331182     -0.028812                    
P 13 -13388.636193  18095.242412  13681.359058    673.855978                    
V 13   1613.813778 -17877.748811  25051.298047      0.021029                    
P 14 -23183.116895 -12437.010326  -4401.913511    484.653431                    
V 14  -2825.318127  -5750.745671  30589.874673      0.086268                    
P 15  -3383.204822  24980.710510   7563.120220    198.723036                    
V 15  -4502.402560 -10016.395098  29264.269118      0.043486                    
P 16  14781.894519  -6730.819691  20760.537645   -194.040915                    
V 16  20689.504435  17434.949428  -8499.871976      0.102776                    
P 17 -13681.304902  -7440.982076 -21073.215245    640.597845                    
V 17   4225.204738 -27437.097900   6974.413588     -0.104579                    
P 18  11864.108481  10465.290073  21387.739989   -650.210667                    
V 18 -24285.957913  11879.982665   7452.055701     -0.026762                    
P 19 -15443.108910   1558.998160 -21662.191124    531.738148                    
V 19   4065.220339 -26873.057881  -5279.844668      0.050232                    
P 20 -19135.115493   5264.773337  17643.977745    371.130050                    
V 20 -19748.672404 -10620.895035 -18464.706794     -0.003968                    
P 21  12065.122662 -18469.419833 -13561.218485    102.640542                    
V 21  17219.988345  -6994.464472  25154.728410     -0.006819                    
P 22 -22231.066310  -7335.147848 -11845.823965    -56.945342                    
V 22 -10574.264456 -12048.630159  26681.996758     -0.039592                    
P 23  20483.900318  16497.186059   4492.053001    309.400638                    
V 23  -5807.991907  -1336.596623  31367.579781      0.085123                    
P 24  -8138.776390  19356.356952 -16460.451067   -486.767185                    
V 24 -18591.797654   8605.356246  20257.175450     -0.001767                    
P 25  13802.539573  19410.910524 -12360.977654    499.513024                    
V 25 -13956.345040  -6204.285437 -25787.968476      0.001095                    
P 26  22970.930045   1325.462313  13425.951527     89.420974                    
V 26  13743.985973  10755.781130 -23915.674930     -0.080898                    
P 27  12572.000615 -15932.594306  16612.636141    -33.573428                    
V 27    854.774183  21910.016645  20430.669787     -0.003113                    
P 28  23247.505485  -2367.430856 -12640.465743   -393.156145                    
V 28 -13092.072891   9523.275817 -25881.331661     -0.143939                    
P 29   3884.601842  23959.213809  10594.201329   -580.872028                    
V 29  -4225.178272  13077.236029 -28030.422983      0.023031                    
P 30 -20573.689719  -3596.720780  16707.925147   -330.273595                    
V 30  17847.145265 -11080.690189  19504.956777      0.069711                    
P 31  24723.428495 -10172.734524  -1664.607492   -225.280090                    
V 31   -528.516656   3186.273347 -31273.724024      0.004425                    
P 32  14529.957467   5661.099000 -21311.620331   -601.517055                    
V 32  -2007.635201  27460.416684   5669.926269      0.032249                    
EOF
